STARLINK-11530 [DTC]    
1 62562U 25006J   26190.99546341  .00198621  00000+0  15090-2 0  9996
2 62562  43.0007 123.0580 0002284 237.7055 122.3592 15.70929191 85833
STARLINK-11536 [DTC]    
1 62563U 25006K   26191.14904371  .00180934  00000+0  13808-2 0  9999
2 62563  43.0018 121.6073 0002826 254.1295 105.9261 15.70876498 85862
STARLINK-11540 [DTC]    
1 62564U 25006L   26191.17029074  .00138073  00000+0  10611-2 0  9997
2 62564  42.9986 121.7790 0000610 348.0021  12.0832 15.70853581 85861
STARLINK-11523 [DTC]    
1 62565U 25006M   26191.33336806 -.00041104  00000+0 -31835-3 0  9992
2 62565  43.0001 120.8721 0001347 274.3648 259.0012 15.70845412  5892
STARLINK-11525 [DTC]    
1 62566U 25006N   26190.93718992 -.00034430  00000+0 -26634-3 0  9993
2 62566  42.9985 123.4869 0001739 303.0333  57.0368 15.70802512 85825
STARLINK-32752          
1 62567U 25006P   26191.36760289  .00010646  00000+0  39570-3 0  9992
2 62567  43.0049 319.8512 0003850 280.2574  79.7844 15.27588990 83623
STARLINK-32760          
1 62568U 25006Q   26191.37274105  .00018310  00000+0  67305-3 0  9994
2 62568  42.9980 319.8695 0001935 276.7144  83.3488 15.27589031 83625
STARLINK-32715          
1 62569U 25006R   26191.33336806  .00036882  00000+0  13445-2 0  9997
2 62569  43.0008 320.2239 0001482 268.8213 184.9481 15.27545248  5879
STARLINK-32764          
1 62570U 25006S   26191.38944711  .00021243  00000+0  77901-3 0  9997
2 62570  43.0013 320.0036 0003019 289.1623  70.8901 15.27588161 83629
STARLINK-32773          
1 62571U 25006T   26191.41499695  .00020180  00000+0  74048-3 0  9996
2 62571  43.0030 319.3367 0001277 231.9470 128.1267 15.27596601 83637
STARLINK-32750          
1 62572U 25006U   26191.39700109  .00009227  00000+0  34425-3 0  9993
2 62572  43.0025 319.1951 0001122 257.0229 103.0497 15.27593801 83635
STARLINK-32771          
1 62573U 25006V   26191.40728676  .00012588  00000+0  46601-3 0  9998
2 62573  42.9940 319.2686 0002088 155.8402 204.2547 15.27590974 83634
STARLINK-32766          
1 62574U 25006W   26191.42527831  .00010272  00000+0  38215-3 0  9991
2 62574  43.0010 319.4113 0001628 254.7101 105.3571 15.27590217 83634
CENTISPACE-1 S7         
1 62576U 25007B   26191.54988701 -.00000090  00000+0  48385-4 0  9992
2 62576  54.9742 210.2849 0013980 109.1290 251.1181 13.80615094 77941
CENTISPACE-1 S10        
1 62579U 25007E   26191.51348132 -.00000071  00000+0  65491-4 0  9996
2 62579  54.9866 209.9149 0012299 134.2402 225.9566 13.80615302 77954
CENTISPACE-1 S11        
1 62580U 25007F   26191.52790469 -.00000085  00000+0  52718-4 0  9996
2 62580  54.9753 209.4754 0011943 136.0534 224.1374 13.80616437 77957
CENTISPACE-1 S14        
1 62583U 25007J   26191.59333387 -.00000089  00000+0  48778-4 0  9993
2 62583  54.9820 210.7427 0012245 132.8663 227.3323 13.80614947 77942
STARLINK-11547 [DTC]    
1 62587U 25008A   26190.90761926  .00155438  00000+0  11880-2 0  9996
2 62587  42.9997 109.6807 0002518 238.2946 121.7676 15.70924786 85339
STARLINK-11185 [DTC]    
1 62588U 25008B   26191.13010728  .00136401  00000+0  10487-2 0  9991
2 62588  42.9971 107.8958 0002023  17.1716 342.9220 15.70848925 85375
STARLINK-11397 [DTC]    
1 62590U 25008D   26191.11416868  .00138406  00000+0  10634-2 0  9998
2 62590  43.0012 107.7613 0001876 250.2921 109.7745 15.70858922 86488
STARLINK-11420 [DTC]    
1 62591U 25008E   26191.15664934  .00225952  00000+0  17130-2 0  9993
2 62591  42.9994 108.1066 0000835 315.1128  44.9672 15.70895274 86555
STARLINK-11415 [DTC]    
1 62592U 25008F   26191.10898884  .00134059  00000+0  10317-2 0  9999
2 62592  43.0015 108.6162 0002368 272.9656  87.0941 15.70834632 86472
