OBJECT_NAME,OBJECT_ID,EPOCH,MEAN_MOTION,ECCENTRICITY,INCLINATION,RA_OF_ASC_NODE,ARG_OF_PERICENTER,MEAN_ANOMALY,EPHEMERIS_TYPE,CLASSIFICATION_TYPE,NORAD_CAT_ID,ELEMENT_SET_NO,REV_AT_EPOCH,BSTAR,MEAN_MOTION_DOT,MEAN_MOTION_DDOT
STARLINK-11530 [DTC],2025-006J,2026-07-09T23:53:28.038624,15.70929191,.00022845,43.0007,123.0580,237.7055,122.3592,0,U,62562,999,8583,.15089891E-2,.198621E-2,0
STARLINK-11536 [DTC],2025-006K,2026-07-10T03:34:37.376544,15.70876498,.00028264,43.0018,121.6073,254.1295,105.9261,0,U,62563,999,8586,.13808466E-2,.180934E-2,0
STARLINK-11540 [DTC],2025-006L,2026-07-10T04:05:13.119936,15.70853581,.00006106,42.9986,121.7790,348.0021,12.0832,0,U,62564,999,8586,.10611454E-2,.138073E-2,0
STARLINK-11523 [DTC],2025-006M,2026-07-10T08:00:03.000384,15.70845412,.00013473,43.0001,120.8721,274.3648,259.0012,0,U,62565,999,589,-.31835023E-3,-.41104E-3,0
STARLINK-11525 [DTC],2025-006N,2026-07-09T22:29:33.209088,15.70802512,.00017394,42.9985,123.4869,303.0333,57.0368,0,U,62566,999,8582,-.26634232E-3,-.3443E-3,0
STARLINK-32752,2025-006P,2026-07-10T08:49:20.889696,15.27588990,.00038501,43.0049,319.8512,280.2574,79.7844,0,U,62567,999,8362,.39570044E-3,.10646E-3,0
STARLINK-32760,2025-006Q,2026-07-10T08:56:44.826720,15.27589031,.00019359,42.9980,319.8695,276.7144,83.3488,0,U,62568,999,8362,.67304823E-3,.1831E-3,0
STARLINK-32715,2025-006R,2026-07-10T08:00:03.000384,15.27545248,.00014821,43.0008,320.2239,268.8213,184.9481,0,U,62569,999,587,.13445286E-2,.36882E-3,0
STARLINK-32764,2025-006S,2026-07-10T09:20:48.230304,15.27588161,.00030191,43.0013,320.0036,289.1623,70.8901,0,U,62570,999,8362,.7790122E-3,.21243E-3,0
STARLINK-32773,2025-006T,2026-07-10T09:57:35.736480,15.27596601,.00012773,43.0030,319.3367,231.9470,128.1267,0,U,62571,999,8363,.74047984E-3,.2018E-3,0
STARLINK-32750,2025-006U,2026-07-10T09:31:40.894176,15.27593801,.00011222,43.0025,319.1951,257.0229,103.0497,0,U,62572,999,8363,.3442488E-3,.9227E-4,0
STARLINK-32771,2025-006V,2026-07-10T09:46:29.576064,15.27590974,.00020884,42.9940,319.2686,155.8402,204.2547,0,U,62573,999,8363,.46600902E-3,.12588E-3,0
STARLINK-32766,2025-006W,2026-07-10T10:12:24.045984,15.27590217,.00016282,43.0010,319.4113,254.7101,105.3571,0,U,62574,999,8363,.38215067E-3,.10272E-3,0
CENTISPACE-1 S7,2025-007B,2026-07-10T13:11:50.238528,13.80615094,.00139802,54.9742,210.2849,109.1290,251.1181,0,U,62576,999,7794,.48384605E-4,-.9E-6,0
CENTISPACE-1 S10,2025-007E,2026-07-10T12:19:24.786912,13.80615302,.00122985,54.9866,209.9149,134.2402,225.9566,0,U,62579,999,7795,.65491294E-4,-.71E-6,0
CENTISPACE-1 S11,2025-007F,2026-07-10T12:40:10.965216,13.80616437,.00119427,54.9753,209.4754,136.0534,224.1374,0,U,62580,999,7795,.52717731E-4,-.85E-6,0
CENTISPACE-1 S14,2025-007J,2026-07-10T14:14:24.046368,13.80614947,.00122447,54.9820,210.7427,132.8663,227.3323,0,U,62583,999,7794,.48778174E-4,-.89E-6,0
STARLINK-11547 [DTC],2025-008A,2026-07-09T21:46:58.304064,15.70924786,.00025182,42.9997,109.6807,238.2946,121.7676,0,U,62587,999,8533,.11880291E-2,.155438E-2,0
STARLINK-11185 [DTC],2025-008B,2026-07-10T03:07:21.268992,15.70848925,.00020234,42.9971,107.8958,17.1716,342.9220,0,U,62588,999,8537,.10487161E-2,.136401E-2,0
STARLINK-11397 [DTC],2025-008D,2026-07-10T02:44:24.173952,15.70858922,.00018769,43.0012,107.7613,250.2921,109.7745,0,U,62590,999,8648,.10633915E-2,.138406E-2,0
STARLINK-11420 [DTC],2025-008E,2026-07-10T03:45:34.502976,15.70895274,.00008353,42.9994,108.1066,315.1128,44.9672,0,U,62591,999,8655,.17129578E-2,.225952E-2,0
STARLINK-11415 [DTC],2025-008F,2026-07-10T02:36:56.635776,15.70834632,.00023689,43.0015,108.6162,272.9656,87.0941,0,U,62592,999,8647,.10316589E-2,.134059E-2,0
